{
"type": "FeatureCollection",
"name": "poskodbe_poly",
"features": [
{ "type": "Feature", "properties": { "defect_id": "972482c3-3673-4786-ae76-69a9805ba7d2", "rank": "corrosion", "type": "corrosion", "image_urls": "(1:P7138961.JPG)" }, "geometry": { "type": "MultiPolygon", "coordinates": [ [ [ [ 467742.218219193979166, 105103.502589935000287 ], [ 467742.465535024006385, 105103.471882313999231 ], [ 467742.467637429013848, 105103.314364366000518 ], [ 467742.222272954008076, 105103.383421311998973 ], [ 467742.218219193979166, 105103.502589935000287 ] ] ] ] } },
{ "type": "Feature", "properties": { "defect_id": "c070bd80-107e-4df7-9dfe-242ba88dd057", "rank": "corrosion", "type": "corrosion", "image_urls": "(1:P7138969.JPG)" }, "geometry": { "type": "MultiPolygon", "coordinates": [ [ [ [ 467742.478019176982343, 105102.41376333500375 ], [ 467742.607817155017983, 105102.397356899993611 ], [ 467742.604822248977143, 105102.279652088996954 ], [ 467742.474248705024365, 105102.320102511002915 ], [ 467742.478019176982343, 105102.41376333500375 ] ] ] ] } },
{ "type": "Feature", "properties": { "defect_id": "b0da9946-95eb-401a-b6e1-0e70c670923b", "rank": "concrete delamination", "type": "delamination", "image_urls": "(1:P7128786.JPG)" }, "geometry": { "type": "MultiPolygon", "coordinates": [ [ [ [ 467743.076368897978682, 105108.797343361002277 ], [ 467743.085191092977766, 105108.800181515995064 ], [ 467743.069198150013108, 105108.796327111005667 ], [ 467743.275371260999236, 105108.849891649995698 ], [ 467743.3020612130058, 105108.856268247996923 ], [ 467743.253312039014418, 105108.843306473005214 ], [ 467743.076368897978682, 105108.797343361002277 ] ] ] ] } },
{ "type": "Feature", "properties": { "defect_id": "6f432e08-2f49-4fa6-8e37-fd47f3d79ae2", "rank": "concrete delamination", "type": "delamination", "image_urls": "(1:P7128738.JPG)" }, "geometry": { "type": "MultiPolygon", "coordinates": [ [ [ [ 467745.059971195005346, 105109.312323199003004 ], [ 467745.027385053981561, 105109.304072579994681 ], [ 467745.041655210021418, 105109.308193485005177 ], [ 467745.09285518201068, 105109.32161218499823 ], [ 467745.214394834998529, 105109.352841187006561 ], [ 467745.201675047981553, 105109.349337923005805 ], [ 467745.129146591993049, 105109.330316243998823 ], [ 467745.059971195005346, 105109.312323199003004 ] ] ] ] } },
{ "type": "Feature", "properties": { "defect_id": "5399fea8-905a-4922-b984-ee278cab4761", "rank": "concrete delamination", "type": "delamination", "image_urls": "(1:P7128742.JPG)" }, "geometry": { "type": "MultiPolygon", "coordinates": [ [ [ [ 467748.045748820994049, 105110.088499499994214 ], [ 467747.978389038995374, 105110.071301714997389 ], [ 467747.961740738013759, 105110.067505026003346 ], [ 467748.078953152988106, 105110.09802492900053 ], [ 467748.158467885979917, 105110.118233278000844 ], [ 467748.121945086983033, 105110.108341389000998 ], [ 467748.045748820994049, 105110.088499499994214 ] ] ] ] } },
{ "type": "Feature", "properties": { "defect_id": "8a27dc63-b139-4736-b512-37470c2024e2", "rank": "concrete delamination", "type": "delamination", "image_urls": "(1:P7128763.JPG)" }, "geometry": { "type": "MultiPolygon", "coordinates": [ [ [ [ 467751.295743337017484, 105110.932343673994183 ], [ 467751.185869780019857, 105110.903704187003314 ], [ 467751.053592143987771, 105110.869458693996421 ], [ 467750.923707943991758, 105110.835623777995352 ], [ 467750.839904222986661, 105110.813887212003465 ], [ 467750.725558989972342, 105110.784239045999129 ], [ 467750.751047515019309, 105110.791256626005634 ], [ 467750.937877689022571, 105110.839813860002323 ], [ 467751.106008337985259, 105110.883456730996841 ], [ 467751.266999514016788, 105110.925205912993988 ], [ 467751.296246764017269, 105110.932652830000734 ], [ 467751.295743337017484, 105110.932343673994183 ] ] ] ] } },
{ "type": "Feature", "properties": { "defect_id": "d4a328f8-9965-41f0-8dc0-663431b1915b", "rank": "concrete delamination", "type": "delamination", "image_urls": "(1:P7128749.JPG)" }, "geometry": { "type": "MultiPolygon", "coordinates": [ [ [ [ 467752.277279947011266, 105111.187151578997145 ], [ 467752.210888142988551, 105111.170049948006636 ], [ 467752.230280200019479, 105111.175151517993072 ], [ 467752.394543703994714, 105111.217795360993478 ], [ 467752.560666952980682, 105111.260910092998529 ], [ 467752.540540918009356, 105111.255585135004367 ], [ 467752.499818435986526, 105111.244936136994511 ], [ 467752.397201890998986, 105111.218226333003258 ], [ 467752.33691924600862, 105111.202598321004189 ], [ 467752.277279947011266, 105111.187151578997145 ] ] ] ] } },
{ "type": "Feature", "properties": { "defect_id": "0247e7a0-7c30-482f-8afb-ce9d4eafb824", "rank": "corrosion", "type": "corrosion", "image_urls": "(1:P7128749.JPG)" }, "geometry": { "type": "MultiPolygon", "coordinates": [ [ [ [ 467752.383655462006573, 105111.21469188699848 ], [ 467752.345897529972717, 105111.204865698993672 ], [ 467752.136574489006307, 105111.15059729499626 ], [ 467752.130734424979892, 105111.149201167994761 ], [ 467752.204055320005864, 105111.168315275004716 ], [ 467752.410233828006312, 105111.221608427993488 ], [ 467752.383655462006573, 105111.21469188699848 ] ] ] ] } },
{ "type": "Feature", "properties": { "defect_id": "2595fbcc-5e72-423c-a045-7652fd03872f", "rank": "corrosion", "type": "corrosion", "image_urls": "(1:P7128749.JPG)" }, "geometry": { "type": "MultiPolygon", "coordinates": [ [ [ [ 467752.925348147982731, 105111.355208852997748 ], [ 467752.839302830980159, 105111.332918909 ], [ 467752.85211395699298, 105111.336469899993972 ], [ 467752.929765279986896, 105111.356621148996055 ], [ 467752.925348147982731, 105111.355208852997748 ] ] ] ] } },
{ "type": "Feature", "properties": { "defect_id": "e65e67c9-2ac5-4200-aa83-c260db68df2b", "rank": "corrosion", "type": "corrosion", "image_urls": "(1:P7128760.JPG)" }, "geometry": { "type": "MultiPolygon", "coordinates": [ [ [ [ 467753.074951222981326, 105111.394003969995538 ], [ 467753.208717552013695, 105111.431823626000551 ], [ 467753.196186479995959, 105111.427923235998605 ], [ 467753.189827547990717, 105111.425464240004658 ], [ 467753.111082886985969, 105111.403539196995553 ], [ 467753.074951222981326, 105111.394003969995538 ] ] ] ] } },
{ "type": "Feature", "properties": { "defect_id": "f23ae6e8-6431-4144-b045-6a3ebdaf2d45", "rank": "concrete delamination", "type": "delamination", "image_urls": "(1:P7128845.JPG)" }, "geometry": { "type": "MultiPolygon", "coordinates": [ [ [ [ 467742.456090456980746, 105108.638289074995555 ], [ 467742.380739132000599, 105108.618875191998086 ], [ 467742.398260782007128, 105108.623701956006698 ], [ 467742.482034341024701, 105108.645828755994444 ], [ 467742.515729839971755, 105108.654497555005946 ], [ 467742.581540137005504, 105108.671484236998367 ], [ 467742.582311492995359, 105108.671330020995811 ], [ 467742.456090456980746, 105108.638289074995555 ] ] ] ] } },
{ "type": "Feature", "properties": { "defect_id": "f24decc8-5a88-4e6e-8dbb-bc1864fe1828", "rank": "corrosion", "type": "corrosion", "image_urls": "(1:P7128781.JPG)" }, "geometry": { "type": "MultiPolygon", "coordinates": [ [ [ [ 467742.717148759984411, 105109.976131396993878 ], [ 467742.533175765012857, 105109.926600206003059 ], [ 467742.516410606971476, 105109.92208651000692 ], [ 467742.708708103979006, 105109.973858912999276 ], [ 467742.717148759984411, 105109.976131396993878 ] ] ] ] } },
{ "type": "Feature", "properties": { "defect_id": "be27ffca-4a6b-4568-97de-5d19ca844d65", "rank": "corrosion", "type": "corrosion", "image_urls": "(1:P7128756.JPG)" }, "geometry": { "type": "MultiPolygon", "coordinates": [ [ [ [ 467754.118434510019142, 105114.749317834997782 ], [ 467754.115086551988497, 105114.726472943002591 ], [ 467754.135145468986593, 105114.863345556004788 ], [ 467754.132660306000616, 105114.846387968995259 ], [ 467754.118434510019142, 105114.749317834997782 ] ] ] ] } },
{ "type": "Feature", "properties": { "defect_id": "f073a91c-9cfa-474e-8005-21ec1910baf3", "rank": "corrosion", "type": "corrosion", "image_urls": "(1:P7128756.JPG)" }, "geometry": { "type": "MultiPolygon", "coordinates": [ [ [ [ 467754.344984309980646, 105116.672932907997165 ], [ 467753.93059078900842, 105118.024753749006777 ], [ 467754.013581399980467, 105118.01699703799386 ], [ 467753.703386506997049, 105119.01007452099293 ], [ 467753.765097872994374, 105119.199802853006986 ], [ 467754.416470361000393, 105116.921182213001885 ], [ 467754.344984309980646, 105116.672932907997165 ] ] ] ] } },
{ "type": "Feature", "properties": { "defect_id": "02677e27-1db8-4e7a-a384-78b77dd5d36f", "rank": "corrosion", "type": "corrosion", "image_urls": "(1:P7149080.JPG)" }, "geometry": { "type": "MultiPolygon", "coordinates": [ [ [ [ 467743.532209591008723, 105108.280739167996217 ], [ 467742.936836795997806, 105108.455601459005265 ], [ 467742.714886554982513, 105108.670090753003024 ], [ 467742.74484046001453, 105108.733247580996249 ], [ 467743.233911807998084, 105108.877720945005422 ], [ 467743.59823572600726, 105108.780117535992758 ], [ 467743.532209591008723, 105108.280739167996217 ] ] ] ] } },
{ "type": "Feature", "properties": { "defect_id": "7fbb1b51-f048-4d70-ac15-a4a5c46a34c8", "rank": "corrosion", "type": "corrosion", "image_urls": "(1:P7138962.JPG)" }, "geometry": { "type": "MultiPolygon", "coordinates": [ [ [ [ 467741.949407218024135, 105103.694177223995212 ], [ 467742.074843309004791, 105103.666864305007039 ], [ 467742.056328014994506, 105103.565820149000501 ], [ 467741.924807171977591, 105103.601114085002337 ], [ 467741.949407218024135, 105103.694177223995212 ] ] ] ] } },
{ "type": "Feature", "properties": { "defect_id": "8a761da7-85a6-4266-a630-aa67d97fbe93", "rank": "corrosion", "type": "corrosion", "image_urls": "(1:P7138962.JPG)" }, "geometry": { "type": "MultiPolygon", "coordinates": [ [ [ [ 467742.655224369023927, 105103.606751932995394 ], [ 467742.824286443996243, 105103.589698829004192 ], [ 467742.779807985003572, 105103.311402203005855 ], [ 467742.636773146979976, 105103.355312073006644 ], [ 467742.655224369023927, 105103.606751932995394 ] ] ] ] } },
{ "type": "Feature", "properties": { "defect_id": "ffaaa9ee-86fd-449d-834c-a98615030869", "rank": "corrosion", "type": "corrosion", "image_urls": "(1:P7138962.JPG)" }, "geometry": { "type": "MultiPolygon", "coordinates": [ [ [ [ 467742.522449044976383, 105103.06907013199816 ], [ 467742.741094974975567, 105103.025469065003563 ], [ 467742.686791323008947, 105102.60129827199853 ], [ 467742.466235245985445, 105102.701830071004224 ], [ 467742.522449044976383, 105103.06907013199816 ] ] ] ] } },
{ "type": "Feature", "properties": { "defect_id": "29b7a8c2-79a3-4137-b52d-101cd13d1a65", "rank": "concrete delamination", "type": "delamination", "image_urls": "(1:P7138969.JPG)" }, "geometry": { "type": "MultiPolygon", "coordinates": [ [ [ [ 467741.888024543004576, 105103.060951224993914 ], [ 467741.997329421981703, 105103.026553642994259 ], [ 467742.002439077012241, 105102.862618598999688 ], [ 467741.978738927980885, 105102.733748583006673 ], [ 467741.855857699003536, 105102.755376583998441 ], [ 467741.832833560998552, 105102.789569151005708 ], [ 467741.856493529980071, 105102.964816072999383 ], [ 467741.888024543004576, 105103.060951224993914 ] ] ] ] } },
{ "type": "Feature", "properties": { "defect_id": "a814db49-ca03-4b3e-bb27-8f95d18732c6", "rank": "corrosion", "type": "corrosion", "image_urls": "(1:P7138969.JPG)" }, "geometry": { "type": "MultiPolygon", "coordinates": [ [ [ [ 467742.478735133016016, 105102.060900426004082 ], [ 467742.573267217027023, 105102.050153172996943 ], [ 467742.557515088003129, 105101.977724698997918 ], [ 467742.472640609019436, 105101.997131433992763 ], [ 467742.478735133016016, 105102.060900426004082 ] ] ] ] } },
{ "type": "Feature", "properties": { "defect_id": "a91deb0d-8232-4398-8a37-ee7ed1ea40dc", "rank": "corrosion", "type": "corrosion", "image_urls": "(1:P7138969.JPG)" }, "geometry": { "type": "MultiPolygon", "coordinates": [ [ [ [ 467741.746755380008835, 105102.133640996995382 ], [ 467741.835695303976536, 105102.123622119994252 ], [ 467741.794676836987492, 105101.801526384006138 ], [ 467741.697344043990597, 105101.840714745994774 ], [ 467741.746755380008835, 105102.133640996995382 ] ] ] ] } },
{ "type": "Feature", "properties": { "defect_id": "2c883021-05b8-40d4-a33e-631afd5dd9e2", "rank": "corrosion", "type": "corrosion", "image_urls": "(1:P7138971.JPG)" }, "geometry": { "type": "MultiPolygon", "coordinates": [ [ [ [ 467742.200331747997552, 105100.545795013997122 ], [ 467742.362189205014147, 105100.587172920000739 ], [ 467742.376896754023619, 105100.474995416007005 ], [ 467742.273393308976665, 105100.38778280900442 ], [ 467742.195051723974757, 105100.449196348999976 ], [ 467742.200331747997552, 105100.545795013997122 ] ] ] ] } },
{ "type": "Feature", "properties": { "defect_id": "6400d3e0-7f46-4c55-b640-dd8d815046f3", "rank": "corrosion", "type": "corrosion", "image_urls": "(1:P7138972.JPG)" }, "geometry": { "type": "MultiPolygon", "coordinates": [ [ [ [ 467742.051298159989528, 105099.191965884994715 ], [ 467742.018063845986035, 105099.37448793000658 ], [ 467742.101435630000196, 105099.565360378997866 ], [ 467742.225686887977645, 105099.550911330006784 ], [ 467742.190040433022659, 105099.167858642002102 ], [ 467742.051298159989528, 105099.191965884994715 ] ] ] ] } },
{ "type": "Feature", "properties": { "defect_id": "a49d5930-bae0-4f52-a53d-2511ac86de4e", "rank": "corrosion", "type": "corrosion", "image_urls": "(1:P7138984.JPG)" }, "geometry": { "type": "MultiPolygon", "coordinates": [ [ [ [ 467740.44167844200274, 105093.333539981002104 ], [ 467740.582373172976077, 105093.186635024001589 ], [ 467740.768949333985802, 105093.097582677000901 ], [ 467740.796564639022108, 105092.976900698995451 ], [ 467740.56293725699652, 105092.921424237007159 ], [ 467740.393898334994446, 105092.97109622300195 ], [ 467740.44167844200274, 105093.333539981002104 ] ] ] ] } },
{ "type": "Feature", "properties": { "defect_id": "c15dab4b-ae93-473f-8c70-edff752a40cc", "rank": "corrosion", "type": "corrosion", "image_urls": "(1:P7138984.JPG)" }, "geometry": { "type": "MultiPolygon", "coordinates": [ [ [ [ 467740.992563373991288, 105092.697464965996915 ], [ 467741.168310020992067, 105092.826598296000157 ], [ 467741.230348542972934, 105092.613620657997672 ], [ 467741.182600665022619, 105092.451910709001822 ], [ 467740.996668495004997, 105092.531965247995686 ], [ 467740.992563373991288, 105092.697464965996915 ] ] ] ] } },
{ "type": "Feature", "properties": { "defect_id": "051867af-0d39-4118-bbef-a85a4d7d0c78", "rank": "corrosion", "type": "corrosion", "image_urls": "(1:P7138984.JPG)" }, "geometry": { "type": "MultiPolygon", "coordinates": [ [ [ [ 467740.995184184983373, 105092.221141667003394 ], [ 467741.148015428974759, 105092.13310443800583 ], [ 467741.078299821005203, 105091.583873434006819 ], [ 467740.973296894982923, 105091.660367824006244 ], [ 467740.789100743015297, 105091.756094804004533 ], [ 467740.886627722007688, 105092.150274258005084 ], [ 467740.995184184983373, 105092.221141667003394 ] ] ] ] } },
{ "type": "Feature", "properties": { "defect_id": "f164e094-4490-4a51-b02b-7b9d669b8bbe", "rank": "corrosion", "type": "corrosion", "image_urls": "(1:P7138984.JPG)" }, "geometry": { "type": "MultiPolygon", "coordinates": [ [ [ [ 467740.874627388024237, 105091.610248015000252 ], [ 467741.014506892010104, 105091.601606063006329 ], [ 467740.993684226006735, 105091.48854635200405 ], [ 467740.871372215973679, 105091.5021858310065 ], [ 467740.874627388024237, 105091.610248015000252 ] ] ] ] } },
{ "type": "Feature", "properties": { "defect_id": "0e505cd3-6610-4f42-8deb-94598efde349", "rank": "concrete delamination", "type": "delamination", "image_urls": "(1:P7138984.JPG)" }, "geometry": { "type": "MultiPolygon", "coordinates": [ [ [ [ 467740.462026419991162, 105093.371536400998593 ], [ 467740.720599492022302, 105093.331890699002543 ], [ 467740.713983319001272, 105093.191326048006886 ], [ 467740.617687779013067, 105093.125786586999311 ], [ 467740.452349232975394, 105093.249858900002437 ], [ 467740.462026419991162, 105093.371536400998593 ] ] ] ] } },
{ "type": "Feature", "properties": { "defect_id": "c3b3681c-2feb-48e8-b7d4-c0716a70f147", "rank": "corrosion", "type": "corrosion", "image_urls": "(1:P7138986.JPG)" }, "geometry": { "type": "MultiPolygon", "coordinates": [ [ [ [ 467740.79255800799001, 105090.928697513998486 ], [ 467740.915263276023325, 105090.999761649 ], [ 467740.968020684027579, 105090.936628484996618 ], [ 467740.928658811026253, 105090.609835830997326 ], [ 467740.832784363999963, 105090.812164090006263 ], [ 467740.79255800799001, 105090.928697513998486 ] ] ] ] } },
{ "type": "Feature", "properties": { "defect_id": "c6853566-94c5-490e-a47b-2a257f702990", "rank": "corrosion", "type": "corrosion", "image_urls": "(1:P7138999.JPG)" }, "geometry": { "type": "MultiPolygon", "coordinates": [ [ [ [ 467739.360452548018657, 105082.269741747004446 ], [ 467739.35369915998308, 105082.193243293004343 ], [ 467739.081914199981838, 105082.235057333004079 ], [ 467739.112278500979301, 105082.319350702993688 ], [ 467739.360452548018657, 105082.269741747004446 ] ] ] ] } },
{ "type": "Feature", "properties": { "defect_id": "355466ff-af26-44a4-a122-8bbb05318413", "rank": "corrosion", "type": "corrosion", "image_urls": "(1:P7138999.JPG)" }, "geometry": { "type": "MultiPolygon", "coordinates": [ [ [ [ 467739.105498927994631, 105082.049201047993847 ], [ 467739.618347626004834, 105081.94483309899806 ], [ 467739.60299888701411, 105081.869286432993249 ], [ 467739.114546659984626, 105081.957721416998538 ], [ 467739.105498927994631, 105082.049201047993847 ] ] ] ] } },
{ "type": "Feature", "properties": { "defect_id": "0cf10bc1-1b90-4b6b-abec-1badd53a93b0", "rank": "concrete delamination", "type": "delamination", "image_urls": "(1:P7139020.JPG)" }, "geometry": { "type": "MultiPolygon", "coordinates": [ [ [ [ 467741.509913406975102, 105101.229893423995236 ], [ 467741.547444426978473, 105101.304226407999522 ], [ 467741.549521383014508, 105101.30022386800556 ], [ 467741.52546443999745, 105101.130979327994282 ], [ 467741.501462005020585, 105101.12980975600658 ], [ 467741.499378642998636, 105101.152794385998277 ], [ 467741.509913406975102, 105101.229893423995236 ] ] ] ] } }
]
}
