{
"type": "FeatureCollection",
"name": "poskodbe_linije",
"features": [
{ "type": "Feature", "properties": { "defect_id": "e4065d13-cb3d-413b-8c21-ffe809eca76a", "rank": "concrete (non definable width)", "type": "crack", "image_urls": "(1:P7128745.JPG)" }, "geometry": { "type": "MultiLineString", "coordinates": [ [ [ 467749.604791162011679, 105110.493329628996435 ], [ 467749.605217293021269, 105110.493702781997854 ], [ 467749.574884874979034, 105110.486078590998659 ], [ 467749.60251405602321, 105110.49353722500382 ] ] ] } },
{ "type": "Feature", "properties": { "defect_id": "8336c146-0b5c-4c5c-b26c-30c65ad94491", "rank": "concrete (> 0.6mm)", "type": "crack", "image_urls": "(5:P7128741.JPG,P7128740.JPG,P7128820.JPG,P7128851.JPG,P7128903.JPG)" }, "geometry": { "type": "MultiLineString", "coordinates": [ [ [ 467747.315371920005418, 105109.89814284699969 ], [ 467747.324669572000857, 105109.900825527001871 ], [ 467747.348078514973167, 105109.907004170992877 ], [ 467747.321894442022312, 105109.900284338000347 ], [ 467747.315050432982389, 105109.898654706004891 ], [ 467747.298538682982326, 105109.894550184006221 ], [ 467747.292401654005516, 105109.893152603006456 ], [ 467747.294726384978276, 105109.893953206003061 ], [ 467747.264754569972865, 105109.886408527003368 ], [ 467747.244747926015407, 105109.881322340996121 ], [ 467747.233647354994901, 105109.878685803996632 ], [ 467747.247697548998985, 105109.882574803996249 ], [ 467747.253077758010477, 105109.884204483998474 ], [ 467747.260314885003027, 105109.88630257800105 ], [ 467747.279080130974762, 105109.891430792005849 ], [ 467747.30684008897515, 105109.89868550200481 ], [ 467747.362501177995, 105109.913297114006127 ], [ 467747.317047961987555, 105109.901559117002762 ], [ 467747.323536268027965, 105109.903367703998811 ], [ 467747.316101300006267, 105109.901576685006148 ], [ 467747.325281711993739, 105109.904069971002173 ], [ 467747.319466292974539, 105109.902634154001134 ], [ 467747.32252383598825, 105109.903495994993136 ], [ 467747.317007804987952, 105109.902080393992946 ], [ 467747.311900712025817, 105109.90077164399554 ] ] ] } }
]
}
